{"fetched_at":"2026-07-20T07:40:22.620Z","source":"https://celestrak.org/NORAD/elements/gp.php?GROUP=oneweb&FORMAT=JSON","constellation":"oneweb","records":[{"OBJECT_NAME":"ONEWEB-0504","OBJECT_ID":"2022-138K","EPOCH":"2026-07-19T19:19:37.831008","CLASSIFICATION_TYPE":"U","MEAN_MOTION":13.19726352,"ECCENTRICITY":0.0001952,"INCLINATION":87.9191,"RA_OF_ASC_NODE":298.4731,"ARG_OF_PERICENTER":108.1752,"MEAN_ANOMALY":251.9593,"EPHEMERIS_TYPE":0,"NORAD_CAT_ID":54122,"ELEMENT_SET_NO":999,"REV_AT_EPOCH":18113,"BSTAR":-0.000025182,"MEAN_MOTION_DOT":3e-8,"MEAN_MOTION_DDOT":0},{"OBJECT_NAME":"ONEWEB-0505","OBJECT_ID":"2022-138L","EPOCH":"2026-07-19T19:15:04.223808","CLASSIFICATION_TYPE":"U","MEAN_MOTION":13.1972355,"ECCENTRICITY":0.0002113,"INCLINATION":87.9191,"RA_OF_ASC_NODE":298.4742,"ARG_OF_PERICENTER":113.4676,"MEAN_ANOMALY":246.6679,"EPHEMERIS_TYPE":0,"NORAD_CAT_ID":54123,"ELEMENT_SET_NO":999,"REV_AT_EPOCH":18111,"BSTAR":-0.00020588,"MEAN_MOTION_DOT":-6.9e-7,"MEAN_MOTION_DDOT":0},{"OBJECT_NAME":"ONEWEB-0506","OBJECT_ID":"2022-138M","EPOCH":"2026-07-19T18:38:42.775008","CLASSIFICATION_TYPE":"U","MEAN_MOTION":13.19725522,"ECCENTRICITY":0.0002097,"INCLINATION":87.9194,"RA_OF_ASC_NODE":298.4771,"ARG_OF_PERICENTER":109.6114,"MEAN_ANOMALY":250.5245,"EPHEMERIS_TYPE":0,"NORAD_CAT_ID":54124,"ELEMENT_SET_NO":999,"REV_AT_EPOCH":18110,"BSTAR":0.000043758,"MEAN_MOTION_DOT":3e-7,"MEAN_MOTION_DDOT":0},{"OBJECT_NAME":"ONEWEB-0507","OBJECT_ID":"2022-138N","EPOCH":"2026-07-19T19:08:15.084384","CLASSIFICATION_TYPE":"U","MEAN_MOTION":13.19726593,"ECCENTRICITY":0.0002107,"INCLINATION":87.9185,"RA_OF_ASC_NODE":298.4821,"ARG_OF_PERICENTER":105.9277,"MEAN_ANOMALY":254.2088,"EPHEMERIS_TYPE":0,"NORAD_CAT_ID":54125,"ELEMENT_SET_NO":999,"REV_AT_EPOCH":18115,"BSTAR":-0.00017423,"MEAN_MOTION_DOT":-5.7e-7,"MEAN_MOTION_DDOT":0},{"OBJECT_NAME":"ONEWEB-0508","OBJECT_ID":"2022-138P","EPOCH":"2026-07-19T19:03:42.920064","CLASSIFICATION_TYPE":"U","MEAN_MOTION":13.19726125,"ECCENTRICITY":0.0002295,"INCLINATION":87.9186,"RA_OF_ASC_NODE":298.4823,"ARG_OF_PERICENTER":109.4653,"MEAN_ANOMALY":250.6728,"EPHEMERIS_TYPE":0,"NORAD_CAT_ID":54126,"ELEMENT_SET_NO":999,"REV_AT_EPOCH":18113,"BSTAR":-0.000078489,"MEAN_MOTION_DOT":-1.8e-7,"MEAN_MOTION_DDOT":0},{"OBJECT_NAME":"ONEWEB-0509","OBJECT_ID":"2022-138Q","EPOCH":"2026-07-19T18:27:19.218816","CLASSIFICATION_TYPE":"U","MEAN_MOTION":13.19724532,"ECCENTRICITY":0.0002072,"INCLINATION":87.9196,"RA_OF_ASC_NODE":298.4802,"ARG_OF_PERICENTER":105.2007,"MEAN_ANOMALY":254.9355,"EPHEMERIS_TYPE":0,"NORAD_CAT_ID":54127,"ELEMENT_SET_NO":999,"REV_AT_EPOCH":18110,"BSTAR":0.00014073,"MEAN_MOTION_DOT":6.9e-7,"MEAN_MOTION_DDOT":0},{"OBJECT_NAME":"ONEWEB-0510","OBJECT_ID":"2022-138R","EPOCH":"2026-07-19T16:58:42.099744","CLASSIFICATION_TYPE":"U","MEAN_MOTION":13.2077093,"ECCENTRICITY":0.0001892,"INCLINATION":87.9178,"RA_OF_ASC_NODE":267.9558,"ARG_OF_PERICENTER":85.8815,"MEAN_ANOMALY":274.2534,"EPHEMERIS_TYPE":0,"NORAD_CAT_ID":54128,"ELEMENT_SET_NO":999,"REV_AT_EPOCH":18357,"BSTAR":0.00025429,"MEAN_MOTION_DOT":0.00000116,"MEAN_MOTION_DDOT":0},{"OBJECT_NAME":"ONEWEB-0511","OBJECT_ID":"2022-138S","EPOCH":"2026-07-19T18:22:45.842304","CLASSIFICATION_TYPE":"U","MEAN_MOTION":13.19723875,"ECCENTRICITY":0.0001778,"INCLINATION":87.9193,"RA_OF_ASC_NODE":298.4822,"ARG_OF_PERICENTER":105.0055,"MEAN_ANOMALY":255.1274,"EPHEMERIS_TYPE":0,"NORAD_CAT_ID":54129,"ELEMENT_SET_NO":999,"REV_AT_EPOCH":18113,"BSTAR":0.00015045,"MEAN_MOTION_DOT":7.3e-7,"MEAN_MOTION_DDOT":0},{"OBJECT_NAME":"ONEWEB-0512","OBJECT_ID":"2022-138T","EPOCH":"2026-07-19T18:11:23.016192","CLASSIFICATION_TYPE":"U","MEAN_MOTION":13.19724952,"ECCENTRICITY":0.0001978,"INCLINATION":87.9184,"RA_OF_ASC_NODE":298.4866,"ARG_OF_PERICENTER":110.4801,"MEAN_ANOMALY":249.6545,"EPHEMERIS_TYPE":0,"NORAD_CAT_ID":54130,"ELEMENT_SET_NO":999,"REV_AT_EPOCH":18110,"BSTAR":-0.00024391,"MEAN_MOTION_DOT":-8.5e-7,"MEAN_MOTION_DDOT":0},{"OBJECT_NAME":"ONEWEB-0513","OBJECT_ID":"2022-138U","EPOCH":"2026-07-19T19:49:18.977376","CLASSIFICATION_TYPE":"U","MEAN_MOTION":13.20269161,"ECCENTRICITY":0.0001789,"INCLINATION":87.9192,"RA_OF_ASC_NODE":298.4133,"ARG_OF_PERICENTER":127.5417,"MEAN_ANOMALY":232.5879,"EPHEMERIS_TYPE":0,"NORAD_CAT_ID":54131,"ELEMENT_SET_NO":999,"REV_AT_EPOCH":18102,"BSTAR":-0.00014837,"MEAN_MOTION_DOT":-4.7e-7,"MEAN_MOTION_DDOT":0},{"OBJECT_NAME":"ONEWEB-0514","OBJECT_ID":"2022-138V","EPOCH":"2026-07-19T18:34:08.323680","CLASSIFICATION_TYPE":"U","MEAN_MOTION":13.1972465,"ECCENTRICITY":0.0001947,"INCLINATION":87.9192,"RA_OF_ASC_NODE":298.48,"ARG_OF_PERICENTER":96.5629,"MEAN_ANOMALY":263.5725,"EPHEMERIS_TYPE":0,"NORAD_CAT_ID":54132,"ELEMENT_SET_NO":999,"REV_AT_EPOCH":18112,"BSTAR":-0.00010575,"MEAN_MOTION_DOT":-2.9e-7,"MEAN_MOTION_DDOT":0},{"OBJECT_NAME":"ONEWEB-0515","OBJECT_ID":"2022-138W","EPOCH":"2026-07-19T16:39:19.363104","CLASSIFICATION_TYPE":"U","MEAN_MOTION":13.20771854,"ECCENTRICITY":0.0002682,"INCLINATION":87.9184,"RA_OF_ASC_NODE":267.9545,"ARG_OF_PERICENTER":83.5302,"MEAN_ANOMALY":276.6136,"EPHEMERIS_TYPE":0,"NORAD_CAT_ID":54133,"ELEMENT_SET_NO":999,"REV_AT_EPOCH":18359,"BSTAR":0.000060346,"MEAN_MOTION_DOT":3.8e-7,"MEAN_MOTION_DDOT":0},{"OBJECT_NAME":"ONEWEB-0516","OBJECT_ID":"2022-138X","EPOCH":"2026-07-19T19:46:55.435872","CLASSIFICATION_TYPE":"U","MEAN_MOTION":13.19723751,"ECCENTRICITY":0.0002182,"INCLINATION":87.9187,"RA_OF_ASC_NODE":298.4735,"ARG_OF_PERICENTER":101.8146,"MEAN_ANOMALY":258.3232,"EPHEMERIS_TYPE":0,"NORAD_CAT_ID":54134,"ELEMENT_SET_NO":999,"REV_AT_EPOCH":18113,"BSTAR":-0.000056707,"MEAN_MOTION_DOT":-1e-7,"MEAN_MOTION_DDOT":0},{"OBJECT_NAME":"ONEWEB-0517","OBJECT_ID":"2022-138Y","EPOCH":"2026-07-19T19:17:21.388992","CLASSIFICATION_TYPE":"U","MEAN_MOTION":13.19726351,"ECCENTRICITY":0.0001689,"INCLINATION":87.9191,"RA_OF_ASC_NODE":298.4725,"ARG_OF_PERICENTER":100.2588,"MEAN_ANOMALY":259.8736,"EPHEMERIS_TYPE":0,"NORAD_CAT_ID":54135,"ELEMENT_SET_NO":999,"REV_AT_EPOCH":18113,"BSTAR":-0.0000484,"MEAN_MOTION_DOT":-6e-8,"MEAN_MOTION_DDOT":0},{"OBJECT_NAME":"ONEWEB-0518","OBJECT_ID":"2022-138Z","EPOCH":"2026-07-19T19:44:39.411168","CLASSIFICATION_TYPE":"U","MEAN_MOTION":13.1972407,"ECCENTRICITY":0.0002242,"INCLINATION":87.9187,"RA_OF_ASC_NODE":298.4758,"ARG_OF_PERICENTER":99.8805,"MEAN_ANOMALY":260.2581,"EPHEMERIS_TYPE":0,"NORAD_CAT_ID":54136,"ELEMENT_SET_NO":999,"REV_AT_EPOCH":18113,"BSTAR":-0.000073353,"MEAN_MOTION_DOT":-1.6e-7,"MEAN_MOTION_DDOT":0},{"OBJECT_NAME":"ONEWEB-0519","OBJECT_ID":"2022-138AA","EPOCH":"2026-07-19T18:31:51.555936","CLASSIFICATION_TYPE":"U","MEAN_MOTION":13.19723806,"ECCENTRICITY":0.000183,"INCLINATION":87.9191,"RA_OF_ASC_NODE":298.4798,"ARG_OF_PERICENTER":99.0971,"MEAN_ANOMALY":261.0369,"EPHEMERIS_TYPE":0,"NORAD_CAT_ID":54137,"ELEMENT_SET_NO":999,"REV_AT_EPOCH":18113,"BSTAR":0.00021168,"MEAN_MOTION_DOT":9.8e-7,"MEAN_MOTION_DDOT":0}]}
